[{"OBJECT_NAME":"STARLINK-35469","OBJECT_ID":"2025-223K","EPOCH":"2026-03-09T21:32:11.078880","MEAN_MOTION":15.30196098,"ECCENTRICITY":0.0001175,"INCLINATION":53.1585,"RA_OF_ASC_NODE":293.4837,"ARG_OF_PERICENTER":57.8257,"MEAN_ANOMALY":302.2858,"EPHEMERIS_TYPE":0,"CLASSIFICATION_TYPE":"U","NORAD_CAT_ID":65863,"ELEMENT_SET_NO":999,"REV_AT_EPOCH":2423,"BSTAR":0.0011202105,"MEAN_MOTION_DOT":0.00032961,"MEAN_MOTION_DDOT":0},{"OBJECT_NAME":"COSMOS 252 DEB","OBJECT_ID":"1968-097CF","EPOCH":"2026-03-09T12:03:06.881472","MEAN_MOTION":13.89760968,"ECCENTRICITY":0.06306282,"INCLINATION":62.7318,"RA_OF_ASC_NODE":125.8805,"ARG_OF_PERICENTER":159.9223,"MEAN_ANOMALY":202.7883,"EPHEMERIS_TYPE":0,"CLASSIFICATION_TYPE":"U","NORAD_CAT_ID":4421,"ELEMENT_SET_NO":999,"REV_AT_EPOCH":54558,"BSTAR":0.0010172608,"MEAN_MOTION_DOT":6.493e-5,"MEAN_MOTION_DDOT":0}]
